[{"OBJECT_NAME":"METOP-B","OBJECT_ID":"2012-049A","EPOCH":"2026-03-06T06:39:30.474720","MEAN_MOTION":14.21443484,"ECCENTRICITY":0.00011891,"INCLINATION":98.6649,"RA_OF_ASC_NODE":118.7664,"ARG_OF_PERICENTER":284.6654,"MEAN_ANOMALY":75.4392,"EPHEMERIS_TYPE":0,"CLASSIFICATION_TYPE":"U","NORAD_CAT_ID":38771,"ELEMENT_SET_NO":999,"REV_AT_EPOCH":69864,"BSTAR":9.8863261e-5,"MEAN_MOTION_DOT":1.73e-6,"MEAN_MOTION_DDOT":0},{"OBJECT_NAME":"SARAL","OBJECT_ID":"2013-009A","EPOCH":"2026-03-06T05:58:49.439712","MEAN_MOTION":14.32827177,"ECCENTRICITY":0.00012869,"INCLINATION":98.5552,"RA_OF_ASC_NODE":253.1084,"ARG_OF_PERICENTER":191.4119,"MEAN_ANOMALY":168.7036,"EPHEMERIS_TYPE":0,"CLASSIFICATION_TYPE":"U","NORAD_CAT_ID":39086,"ELEMENT_SET_NO":999,"REV_AT_EPOCH":68086,"BSTAR":8.1432325e-5,"MEAN_MOTION_DOT":1.78e-6,"MEAN_MOTION_DDOT":0},{"OBJECT_NAME":"METOP-C","OBJECT_ID":"2018-087A","EPOCH":"2026-03-06T05:33:26.296704","MEAN_MOTION":14.21495715,"ECCENTRICITY":0.00021786,"INCLINATION":98.6772,"RA_OF_ASC_NODE":126.6631,"ARG_OF_PERICENTER":104.6388,"MEAN_ANOMALY":255.5031,"EPHEMERIS_TYPE":0,"CLASSIFICATION_TYPE":"U","NORAD_CAT_ID":43689,"ELEMENT_SET_NO":999,"REV_AT_EPOCH":38020,"BSTAR":9.3091654e-5,"MEAN_MOTION_DOT":1.6e-6,"MEAN_MOTION_DDOT":0},{"OBJECT_NAME":"OTB-3-GAZELLE","OBJECT_ID":"2022-127A","EPOCH":"2026-03-05T23:53:24.679392","MEAN_MOTION":14.42633382,"ECCENTRICITY":0.00139376,"INCLINATION":98.3906,"RA_OF_ASC_NODE":58.2968,"ARG_OF_PERICENTER":136.1584,"MEAN_ANOMALY":224.0715,"EPHEMERIS_TYPE":0,"CLASSIFICATION_TYPE":"U","NORAD_CAT_ID":54023,"ELEMENT_SET_NO":999,"REV_AT_EPOCH":17948,"BSTAR":4.3158359e-5,"MEAN_MOTION_DOT":1.0e-6,"MEAN_MOTION_DDOT":0},{"OBJECT_NAME":"EOS-6 (OCEANSAT-3)","OBJECT_ID":"2022-158A","EPOCH":"2026-03-06T06:27:17.121024","MEAN_MOTION":14.47001576,"ECCENTRICITY":1.079e-5,"INCLINATION":98.3489,"RA_OF_ASC_NODE":164.8644,"ARG_OF_PERICENTER":57.1197,"MEAN_ANOMALY":303.0005,"EPHEMERIS_TYPE":0,"CLASSIFICATION_TYPE":"U","NORAD_CAT_ID":54361,"ELEMENT_SET_NO":999,"REV_AT_EPOCH":17295,"BSTAR":0.00013470537,"MEAN_MOTION_DOT":4.46e-6,"MEAN_MOTION_DDOT":0},{"OBJECT_NAME":"KINEIS-1B","OBJECT_ID":"2024-114A","EPOCH":"2026-03-06T07:45:50.004288","MEAN_MOTION":14.80406889,"ECCENTRICITY":0.00038203,"INCLINATION":97.9926,"RA_OF_ASC_NODE":89.9707,"ARG_OF_PERICENTER":79.9949,"MEAN_ANOMALY":280.1694,"EPHEMERIS_TYPE":0,"CLASSIFICATION_TYPE":"U","NORAD_CAT_ID":60079,"ELEMENT_SET_NO":999,"REV_AT_EPOCH":9218,"BSTAR":0.00023144211,"MEAN_MOTION_DOT":1.715e-5,"MEAN_MOTION_DDOT":0},{"OBJECT_NAME":"KINEIS-1C","OBJECT_ID":"2024-114C","EPOCH":"2026-03-06T06:57:02.812896","MEAN_MOTION":14.80396649,"ECCENTRICITY":0.00021147,"INCLINATION":97.9948,"RA_OF_ASC_NODE":89.7616,"ARG_OF_PERICENTER":121.5152,"MEAN_ANOMALY":238.6266,"EPHEMERIS_TYPE":0,"CLASSIFICATION_TYPE":"U","NORAD_CAT_ID":60081,"ELEMENT_SET_NO":999,"REV_AT_EPOCH":9215,"BSTAR":0.00018118258,"MEAN_MOTION_DOT":1.331e-5,"MEAN_MOTION_DDOT":0},{"OBJECT_NAME":"KINEIS-1D","OBJECT_ID":"2024-114D","EPOCH":"2026-03-06T06:49:38.670240","MEAN_MOTION":14.76105537,"ECCENTRICITY":0.00023232,"INCLINATION":97.9971,"RA_OF_ASC_NODE":86.5139,"ARG_OF_PERICENTER":129.411,"MEAN_ANOMALY":230.7305,"EPHEMERIS_TYPE":0,"CLASSIFICATION_TYPE":"U","NORAD_CAT_ID":60082,"ELEMENT_SET_NO":999,"REV_AT_EPOCH":9194,"BSTAR":0.00014349456,"MEAN_MOTION_DOT":9.39e-6,"MEAN_MOTION_DDOT":0},{"OBJECT_NAME":"KINEIS-1E","OBJECT_ID":"2024-114E","EPOCH":"2026-03-06T07:21:26.402976","MEAN_MOTION":14.8041499,"ECCENTRICITY":0.00024835,"INCLINATION":97.9932,"RA_OF_ASC_NODE":89.8599,"ARG_OF_PERICENTER":90.9357,"MEAN_ANOMALY":269.214,"EPHEMERIS_TYPE":0,"CLASSIFICATION_TYPE":"U","NORAD_CAT_ID":60083,"ELEMENT_SET_NO":999,"REV_AT_EPOCH":9216,"BSTAR":0.00018624815,"MEAN_MOTION_DOT":1.37e-5,"MEAN_MOTION_DDOT":0},{"OBJECT_NAME":"KINEIS-1A","OBJECT_ID":"2024-114F","EPOCH":"2026-03-06T08:10:07.847040","MEAN_MOTION":14.80430344,"ECCENTRICITY":0.00048145,"INCLINATION":97.9939,"RA_OF_ASC_NODE":90.0161,"ARG_OF_PERICENTER":99.9376,"MEAN_ANOMALY":260.2379,"EPHEMERIS_TYPE":0,"CLASSIFICATION_TYPE":"U","NORAD_CAT_ID":60084,"ELEMENT_SET_NO":999,"REV_AT_EPOCH":9217,"BSTAR":0.00017836779,"MEAN_MOTION_DOT":1.31e-5,"MEAN_MOTION_DDOT":0},{"OBJECT_NAME":"KINEIS-3C","OBJECT_ID":"2024-172A","EPOCH":"2026-03-06T05:55:32.584224","MEAN_MOTION":14.72295954,"ECCENTRICITY":0.00034933,"INCLINATION":98.0298,"RA_OF_ASC_NODE":156.2901,"ARG_OF_PERICENTER":107.2859,"MEAN_ANOMALY":252.873,"EPHEMERIS_TYPE":0,"CLASSIFICATION_TYPE":"U","NORAD_CAT_ID":61220,"ELEMENT_SET_NO":999,"REV_AT_EPOCH":7792,"BSTAR":0.0005047305,"MEAN_MOTION_DOT":3.141e-5,"MEAN_MOTION_DDOT":0},{"OBJECT_NAME":"KINEIS-3D","OBJECT_ID":"2024-172B","EPOCH":"2026-03-06T05:45:58.592736","MEAN_MOTION":14.72299925,"ECCENTRICITY":0.00025435,"INCLINATION":98.0298,"RA_OF_ASC_NODE":156.2946,"ARG_OF_PERICENTER":113.0313,"MEAN_ANOMALY":247.1163,"EPHEMERIS_TYPE":0,"CLASSIFICATION_TYPE":"U","NORAD_CAT_ID":61221,"ELEMENT_SET_NO":999,"REV_AT_EPOCH":7820,"BSTAR":0.00051327132,"MEAN_MOTION_DOT":3.195e-5,"MEAN_MOTION_DDOT":0},{"OBJECT_NAME":"KINEIS-3E","OBJECT_ID":"2024-172C","EPOCH":"2026-03-06T05:21:24.587136","MEAN_MOTION":14.72287782,"ECCENTRICITY":0.00016217,"INCLINATION":98.0294,"RA_OF_ASC_NODE":156.2732,"ARG_OF_PERICENTER":107.9542,"MEAN_ANOMALY":252.1843,"EPHEMERIS_TYPE":0,"CLASSIFICATION_TYPE":"U","NORAD_CAT_ID":61222,"ELEMENT_SET_NO":999,"REV_AT_EPOCH":7820,"BSTAR":0.00049326073,"MEAN_MOTION_DOT":3.068e-5,"MEAN_MOTION_DDOT":0},{"OBJECT_NAME":"KINEIS-3A","OBJECT_ID":"2024-172D","EPOCH":"2026-03-06T04:56:54.966336","MEAN_MOTION":14.72315457,"ECCENTRICITY":0.00030773,"INCLINATION":98.0288,"RA_OF_ASC_NODE":156.345,"ARG_OF_PERICENTER":77.1112,"MEAN_ANOMALY":283.0439,"EPHEMERIS_TYPE":0,"CLASSIFICATION_TYPE":"U","NORAD_CAT_ID":61223,"ELEMENT_SET_NO":999,"REV_AT_EPOCH":7762,"BSTAR":0.0004882299,"MEAN_MOTION_DOT":3.038e-5,"MEAN_MOTION_DDOT":0},{"OBJECT_NAME":"KINEIS-3B","OBJECT_ID":"2024-172E","EPOCH":"2026-03-06T06:10:19.467264","MEAN_MOTION":14.72269866,"ECCENTRICITY":0.00035797,"INCLINATION":98.0286,"RA_OF_ASC_NODE":156.4287,"ARG_OF_PERICENTER":69.3326,"MEAN_ANOMALY":290.8265,"EPHEMERIS_TYPE":0,"CLASSIFICATION_TYPE":"U","NORAD_CAT_ID":61224,"ELEMENT_SET_NO":999,"REV_AT_EPOCH":7820,"BSTAR":0.0004909929,"MEAN_MOTION_DOT":3.052e-5,"MEAN_MOTION_DDOT":0},{"OBJECT_NAME":"KINEIS-5C","OBJECT_ID":"2024-219A","EPOCH":"2026-03-06T07:14:38.713344","MEAN_MOTION":14.72354082,"ECCENTRICITY":0.00017027,"INCLINATION":97.9697,"RA_OF_ASC_NODE":226.8234,"ARG_OF_PERICENTER":100.2786,"MEAN_ANOMALY":259.8613,"EPHEMERIS_TYPE":0,"CLASSIFICATION_TYPE":"U","NORAD_CAT_ID":62081,"ELEMENT_SET_NO":999,"REV_AT_EPOCH":6861,"BSTAR":-0.00068935804,"MEAN_MOTION_DOT":-4.407e-5,"MEAN_MOTION_DDOT":0},{"OBJECT_NAME":"KINEIS-5D","OBJECT_ID":"2024-219B","EPOCH":"2026-03-06T06:25:42.246912","MEAN_MOTION":14.72334189,"ECCENTRICITY":0.00010675,"INCLINATION":97.9628,"RA_OF_ASC_NODE":226.7714,"ARG_OF_PERICENTER":83.6614,"MEAN_ANOMALY":276.4715,"EPHEMERIS_TYPE":0,"CLASSIFICATION_TYPE":"U","NORAD_CAT_ID":62082,"ELEMENT_SET_NO":999,"REV_AT_EPOCH":6861,"BSTAR":0.00025842051,"MEAN_MOTION_DOT":1.586e-5,"MEAN_MOTION_DDOT":0}]
