METOP-B                 
1 38771U 12049A   26065.27743605  .00000173  00000+0  98863-4 0  9993
2 38771  98.6649 118.7664 0001189 284.6654  75.4392 14.21443484698645
SARAL                   
1 39086U 13009A   26065.24918333  .00000178  00000+0  81432-4 0  9998
2 39086  98.5552 253.1084 0001286 191.4119 168.7036 14.32827177680869
METOP-C                 
1 43689U 18087A   26065.23155436  .00000160  00000+0  93092-4 0  9995
2 43689  98.6772 126.6631 0002178 104.6388 255.5031 14.21495715380207
OTB-3-GAZELLE           
1 54023U 22127A   26064.99542453  .00000100  00000+0  43158-4 0  9992
2 54023  98.3906  58.2968 0013937 136.1584 224.0715 14.42633382179486
EOS-6 (OCEANSAT-3)      
1 54361U 22158A   26065.26894816  .00000446  00000+0  13471-3 0  9992
2 54361  98.3489 164.8644 0000107  57.1197 303.0005 14.47001576172953
KINEIS-1B               
1 60079U 24114A   26065.32349542  .00001715  00000+0  23144-3 0  9995
2 60079  97.9926  89.9707 0003820  79.9949 280.1694 14.80406889 92184
KINEIS-1C               
1 60081U 24114C   26065.28961589  .00001331  00000+0  18118-3 0  9993
2 60081  97.9948  89.7616 0002114 121.5152 238.6266 14.80396649 92155
KINEIS-1D               
1 60082U 24114D   26065.28447535  .00000939  00000+0  14349-3 0  9999
2 60082  97.9971  86.5139 0002323 129.4110 230.7305 14.76105537 91942
KINEIS-1E               
1 60083U 24114E   26065.30655559  .00001370  00000+0  18625-3 0  9991
2 60083  97.9932  89.8599 0002483  90.9357 269.2140 14.80414990 92168
KINEIS-1A               
1 60084U 24114F   26065.34036860  .00001310  00000+0  17837-3 0  9992
2 60084  97.9939  90.0161 0004814  99.9376 260.2379 14.80430344 92172
KINEIS-3C               
1 61220U 24172A   26065.24690491  .00003141  00000+0  50473-3 0  9991
2 61220  98.0298 156.2901 0003493 107.2859 252.8730 14.72295954 77924
KINEIS-3D               
1 61221U 24172B   26065.24026149  .00003195  00000+0  51327-3 0  9993
2 61221  98.0298 156.2946 0002543 113.0313 247.1163 14.72299925 78200
KINEIS-3E               
1 61222U 24172C   26065.22320124  .00003068  00000+0  49326-3 0  9997
2 61222  98.0294 156.2732 0001621 107.9542 252.1843 14.72287782 78201
KINEIS-3A               
1 61223U 24172D   26065.20619174  .00003038  00000+0  48823-3 0  9990
2 61223  98.0288 156.3450 0003077  77.1112 283.0439 14.72315457 77621
KINEIS-3B               
1 61224U 24172E   26065.25716976  .00003052  00000+0  49099-3 0  9996
2 61224  98.0286 156.4287 0003579  69.3326 290.8265 14.72269866 78206
KINEIS-5C               
1 62081U 24219A   26065.30183696 -.00004407  00000+0 -68936-3 0  9991
2 62081  97.9697 226.8234 0001702 100.2786 259.8613 14.72354082 68618
KINEIS-5D               
1 62082U 24219B   26065.26785008  .00001586  00000+0  25842-3 0  9994
2 62082  97.9628 226.7714 0001067  83.6614 276.4715 14.72334189 68617
